[
    {
        "Altitude(m)": 716532.7886000065,
        "Argument of Periapsis(deg)": 0.011390121186627068,
        "Eccentricity": 0.0,
        "Inclination(deg)": 45.0,
        "Latitude(deg)": -41.89418476674047,
        "Longitude(deg)": -128.93139672768183,
        "Mean Anomaly(deg)": 289.7150166474808,
        "RAAN(deg)": 34.9892480585418,
        "Satellite Name": "Constellation 1 171",
        "Satellite Number": 171,
        "Semi-Major Axis(m)": 7083131.272910544,
        "Time(s)": 190
    },
    {
        "Altitude(m)": 716524.742205028,
        "Argument of Periapsis(deg)": 0.011450069192872472,
        "Eccentricity": 0.0,
        "Inclination(deg)": 45.0,
        "Latitude(deg)": -41.87478128869995,
        "Longitude(deg)": -128.85861973108052,
        "Mean Anomaly(deg)": 289.7757177877307,
        "RAAN(deg)": 34.98919146937622,
        "Satellite Name": "Constellation 1 171",
        "Satellite Number": 171,
        "Semi-Major Axis(m)": 7083131.272910544,
        "Time(s)": 191
    },
    {
        "Altitude(m)": 716516.674393855,
        "Argument of Periapsis(deg)": 0.01151001719911788,
        "Eccentricity": 0.0,
        "Inclination(deg)": 45.0,
        "Latitude(deg)": -41.855326301504725,
        "Longitude(deg)": -128.78588917659962,
        "Mean Anomaly(deg)": 289.8364189279806,
        "RAAN(deg)": 34.989134880210656,
        "Satellite Name": "Constellation 1 171",
        "Satellite Number": 171,
        "Semi-Major Axis(m)": 7083131.272910544,
        "Time(s)": 192
    },
    {
        "Altitude(m)": 716508.5851960526,
        "Argument of Periapsis(deg)": 0.011569965205363285,
        "Eccentricity": 0.0,
        "Inclination(deg)": 45.0,
        "Latitude(deg)": -41.83581987055545,
        "Longitude(deg)": -128.71320529525335,
        "Mean Anomaly(deg)": 289.89712006823055,
        "RAAN(deg)": 34.98907829104508,
        "Satellite Name": "Constellation 1 171",
        "Satellite Number": 171,
        "Semi-Major Axis(m)": 7083131.272910544,
        "Time(s)": 193
    },
    {
        "Altitude(m)": 716500.4746412549,
        "Argument of Periapsis(deg)": 0.01162991321160869,
        "Eccentricity": 0.0,
        "Inclination(deg)": 45.0,
        "Latitude(deg)": -41.81626206132333,
        "Longitude(deg)": -128.64056781322535,
        "Mean Anomaly(deg)": 289.9578212084804,
        "RAAN(deg)": 34.989021701879516,
        "Satellite Name": "Constellation 1 171",
        "Satellite Number": 171,
        "Semi-Major Axis(m)": 7083131.272910544,
        "Time(s)": 194
    },
    {
        "Altitude(m)": 716492.342759186,
        "Argument of Periapsis(deg)": 0.011689861217854095,
        "Eccentricity": 0.0,
        "Inclination(deg)": 45.0,
        "Latitude(deg)": -41.79665293934837,
        "Longitude(deg)": -128.5679769604547,
        "Mean Anomaly(deg)": 290.0185223487303,
        "RAAN(deg)": 34.98896511271394,
        "Satellite Name": "Constellation 1 171",
        "Satellite Number": 171,
        "Semi-Major Axis(m)": 7083131.272910544,
        "Time(s)": 195
    },
    {
        "Altitude(m)": 716484.1895796375,
        "Argument of Periapsis(deg)": 0.0117498092240995,
        "Eccentricity": 0.0,
        "Inclination(deg)": 45.0,
        "Latitude(deg)": -41.77699257023926,
        "Longitude(deg)": -128.49543279824607,
        "Mean Anomaly(deg)": 290.0792234889802,
        "RAAN(deg)": 34.98890852354838,
        "Satellite Name": "Constellation 1 171",
        "Satellite Number": 171,
        "Semi-Major Axis(m)": 7083131.272910544,
        "Time(s)": 196
    },
    {
        "Altitude(m)": 716476.0151324827,
        "Argument of Periapsis(deg)": 0.011809757230344905,
        "Eccentricity": 0.0,
        "Inclination(deg)": 45.0,
        "Latitude(deg)": -41.757281019672256,
        "Longitude(deg)": -128.42293538736823,
        "Mean Anomaly(deg)": 290.13992462923017,
        "RAAN(deg)": 34.98885193438281,
        "Satellite Name": "Constellation 1 171",
        "Satellite Number": 171,
        "Semi-Major Axis(m)": 7083131.272910544,
        "Time(s)": 197
    },
    {
        "Altitude(m)": 716467.8194476697,
        "Argument of Periapsis(deg)": 0.011869705236590313,
        "Eccentricity": 0.0,
        "Inclination(deg)": 45.0,
        "Latitude(deg)": -41.73751835339052,
        "Longitude(deg)": -128.35048478805479,
        "Mean Anomaly(deg)": 290.20062576948,
        "RAAN(deg)": 34.98879534521724,
        "Satellite Name": "Constellation 1 171",
        "Satellite Number": 171,
        "Semi-Major Axis(m)": 7083131.272910544,
        "Time(s)": 198
    },
    {
        "Altitude(m)": 716459.6025552179,
        "Argument of Periapsis(deg)": 0.011929653242835719,
        "Eccentricity": 0.0,
        "Inclination(deg)": 45.0,
        "Latitude(deg)": -41.71770463720328,
        "Longitude(deg)": -128.2780810600051,
        "Mean Anomaly(deg)": 290.26132690972986,
        "RAAN(deg)": 34.98873875605167,
        "Satellite Name": "Constellation 1 171",
        "Satellite Number": 171,
        "Semi-Major Axis(m)": 7083131.272910544,
        "Time(s)": 199
    }
]